STARLINK-30894          
1 58375U 23178B   26068.24231191  .00000767  00000+0  38034-4 0  9995
2 58375  53.1621   3.1013 0001149 109.9071 250.2054 15.30184445129755
TANSTAAFL-2             
1 62378U 24247B   26067.20753490  .00013897  00000+0  50872-3 0  9998
2 62378  44.9880 125.0934 0003072 298.8909  61.1666 15.28016845 67506
